{"type": "FeatureCollection", "features": [ {"type": "Feature", "properties": {"norad_id": 66859, "name": "STARLINK-35646", "group": "last-30-days", "lat": 9.887808382359422, "lon": -146.47289988164385, "alt_km": 407.87334507626565, "timestamp": "2025-12-25T14:48:23.570753+00:00", "meta": {"OBJECT_NAME": "STARLINK-35646", "OBJECT_ID": "2025-281M", "EPOCH": "2025-12-25T08:00:01.000224", "MEAN_MOTION": 15.53766898, "ECCENTRICITY": 0.00014351, "INCLINATION": 43, "RA_OF_ASC_NODE": 45.9738, "ARG_OF_PERICENTER": 264.5842, "MEAN_ANOMALY": 113.185, "EPHEMERIS_TYPE": 0, "CLASSIFICATION_TYPE": "U", "NORAD_CAT_ID": 66859, "ELEMENT_SET_NO": 999, "REV_AT_EPOCH": 341, "BSTAR": -0.033766283, "MEAN_MOTION_DOT": -0.019885, "MEAN_MOTION_DDOT": 0}, "tle": {"line1": "1 66859U 25281M   25359.33334491 -.01988500  00000+0 -33766-1 0  9994", "line2": "2 66859  43.0000  45.9738 0001435 264.5842 113.1850 15.53766898  3418"}}, "geometry": {"type": "Point", "coordinates": [-146.47289988164385, 9.887808382359422]}}, {"type": "Feature", "properties": {"norad_id": 66860, "name": "STARLINK-35987", "group": "last-30-days", "lat": 3.4084613168281748, "lon": -139.38055257097292, "alt_km": 408.7921019246942, "timestamp": "2025-12-25T14:48:23.570762+00:00", "meta": {"OBJECT_NAME": "STARLINK-35987", "OBJECT_ID": "2025-281N", "EPOCH": "2025-12-25T08:00:01.000224", "MEAN_MOTION": 15.53762832, "ECCENTRICITY": 0.00015513, "INCLINATION": 43.0001, "RA_OF_ASC_NODE": 45.9496, "ARG_OF_PERICENTER": 272.788, "MEAN_ANOMALY": 114.5662, "EPHEMERIS_TYPE": 0, "CLASSIFICATION_TYPE": "U", "NORAD_CAT_ID": 66860, "ELEMENT_SET_NO": 999, "REV_AT_EPOCH": 341, "BSTAR": -0.033600689, "MEAN_MOTION_DOT": -0.01979565, "MEAN_MOTION_DDOT": 0}, "tle": {"line1": "1 66860U 25281N   25359.33334491 -.01979565  00000+0 -33601-1 0  9995", "line2": "2 66860  43.0001  45.9496 0001551 272.7880 114.5662 15.53762832  3414"}}, "geometry": {"type": "Point", "coordinates": [-139.38055257097292, 3.4084613168281748]}}, {"type": "Feature", "properties": {"norad_id": 66861, "name": "STARLINK-35991", "group": "last-30-days", "lat": 7.309769421951661, "lon": -143.61412726297888, "alt_km": 408.22788481533735, "timestamp": "2025-12-25T14:48:23.570771+00:00", "meta": {"OBJECT_NAME": "STARLINK-35991", "OBJECT_ID": "2025-281P", "EPOCH": "2025-12-25T08:00:01.000224", "MEAN_MOTION": 15.53746287, "ECCENTRICITY": 0.00016345, "INCLINATION": 43.0007, "RA_OF_ASC_NODE": 45.9636, "ARG_OF_PERICENTER": 266.9522, "MEAN_ANOMALY": 114.6574, "EPHEMERIS_TYPE": 0, "CLASSIFICATION_TYPE": "U", "NORAD_CAT_ID": 66861, "ELEMENT_SET_NO": 999, "REV_AT_EPOCH": 341, "BSTAR": -0.033008888, "MEAN_MOTION_DOT": -0.01947245, "MEAN_MOTION_DDOT": 0}, "tle": {"line1": "1 66861U 25281P   25359.33334491 -.01947245  00000+0 -33009-1 0  9998", "line2": "2 66861  43.0007  45.9636 0001634 266.9522 114.6574 15.53746287  3416"}}, "geometry": {"type": "Point", "coordinates": [-143.61412726297888, 7.309769421951661]}}, {"type": "Feature", "properties": {"norad_id": 66862, "name": "STARLINK-35974", "group": "last-30-days", "lat": 8.600003463299085, "lon": -145.03780901840997, "alt_km": 408.0671382138098, "timestamp": "2025-12-25T14:48:23.570781+00:00", "meta": {"OBJECT_NAME": "STARLINK-35974", "OBJECT_ID": "2025-281Q", "EPOCH": "2025-12-25T08:00:01.000224", "MEAN_MOTION": 15.53777804, "ECCENTRICITY": 0.00014436, "INCLINATION": 43.0004, "RA_OF_ASC_NODE": 45.9679, "ARG_OF_PERICENTER": 265.9518, "MEAN_ANOMALY": 113.732, "EPHEMERIS_TYPE": 0, "CLASSIFICATION_TYPE": "U", "NORAD_CAT_ID": 66862, "ELEMENT_SET_NO": 999, "REV_AT_EPOCH": 331, "BSTAR": -0.034176239, "MEAN_MOTION_DOT": -0.02010819, "MEAN_MOTION_DDOT": 0}, "tle": {"line1": "1 66862U 25281Q   25359.33334491 -.02010819  00000+0 -34176-1 0  9994", "line2": "2 66862  43.0004  45.9679 0001443 265.9518 113.7320 15.53777804  3310"}}, "geometry": {"type": "Point", "coordinates": [-145.03780901840997, 8.600003463299085]}}, {"type": "Feature", "properties": {"norad_id": 66863, "name": "STARLINK-36134", "group": "last-30-days", "lat": 6.012307491207654, "lon": -142.19559463021142, "alt_km": 408.4727669868562, "timestamp": "2025-12-25T14:48:23.570790+00:00", "meta": {"OBJECT_NAME": "STARLINK-36134", "OBJECT_ID": "2025-281R", "EPOCH": "2025-12-25T08:00:01.000224", "MEAN_MOTION": 15.53740531, "ECCENTRICITY": 0.00013577, "INCLINATION": 43.0003, "RA_OF_ASC_NODE": 45.9596, "ARG_OF_PERICENTER": 273.7381, "MEAN_ANOMALY": 109.7876, "EPHEMERIS_TYPE": 0, "CLASSIFICATION_TYPE": "U", "NORAD_CAT_ID": 66863, "ELEMENT_SET_NO": 999, "REV_AT_EPOCH": 341, "BSTAR": -0.032812182, "MEAN_MOTION_DOT": -0.01901942, "MEAN_MOTION_DDOT": 0}, "tle": {"line1": "1 66863U 25281R   25359.33334491 -.01901942  00000+0 -32812-1 0  9995", "line2": "2 66863  43.0003  45.9596 0001357 273.7381 109.7876 15.53740531  3416"}}, "geometry": {"type": "Point", "coordinates": [-142.19559463021142, 6.012307491207654]}}, {"type": "Feature", "properties": {"norad_id": 66864, "name": "STARLINK-36070", "group": "last-30-days", "lat": 4.710955913493975, "lon": -140.78547413747913, "alt_km": 408.6554029374729, "timestamp": "2025-12-25T14:48:23.570799+00:00", "meta": {"OBJECT_NAME": "STARLINK-36070", "OBJECT_ID": "2025-281S", "EPOCH": "2025-12-25T08:00:01.000224", "MEAN_MOTION": 15.53767226, "ECCENTRICITY": 0.00014986, "INCLINATION": 42.9999, "RA_OF_ASC_NODE": 45.9537, "ARG_OF_PERICENTER": 272.5168, "MEAN_ANOMALY": 112.922, "EPHEMERIS_TYPE": 0, "CLASSIFICATION_TYPE": "U", "NORAD_CAT_ID": 66864, "ELEMENT_SET_NO": 999, "REV_AT_EPOCH": 344, "BSTAR": -0.033893568, "MEAN_MOTION_DOT": -0.0199527, "MEAN_MOTION_DDOT": 0}, "tle": {"line1": "1 66864U 25281S   25359.33334491 -.01995270  00000+0 -33894-1 0  9994", "line2": "2 66864  42.9999  45.9537 0001498 272.5168 112.9220 15.53767226  3442"}}, "geometry": {"type": "Point", "coordinates": [-140.78547413747913, 4.710955913493975]}}, {"type": "Feature", "properties": {"norad_id": 66865, "name": "STARLINK-36117", "group": "last-30-days", "lat": 2.10289106821557, "lon": -137.9788024851127, "alt_km": 408.9045304953652, "timestamp": "2025-12-25T14:48:23.570807+00:00", "meta": {"OBJECT_NAME": "STARLINK-36117", "OBJECT_ID": "2025-281T", "EPOCH": "2025-12-25T08:00:01.000224", "MEAN_MOTION": 15.53762938, "ECCENTRICITY": 0.00015504, "INCLINATION": 42.9999, "RA_OF_ASC_NODE": 45.9451, "ARG_OF_PERICENTER": 271.6685, "MEAN_ANOMALY": 117.6027, "EPHEMERIS_TYPE": 0, "CLASSIFICATION_TYPE": "U", "NORAD_CAT_ID": 66865, "ELEMENT_SET_NO": 999, "REV_AT_EPOCH": 341, "BSTAR": -0.033587128, "MEAN_MOTION_DOT": -0.01978856, "MEAN_MOTION_DDOT": 0}, "tle": {"line1": "1 66865U 25281T   25359.33334491 -.01978856  00000+0 -33587-1 0  9995", "line2": "2 66865  42.9999  45.9451 0001550 271.6685 117.6027 15.53762938  3410"}}, "geometry": {"type": "Point", "coordinates": [-137.9788024851127, 2.10289106821557]}}, {"type": "Feature", "properties": {"norad_id": 66866, "name": "STARLINK-36126", "group": "last-30-days", "lat": 0.7946848950693092, "lon": -136.57928313455542, "alt_km": 409.0460828203841, "timestamp": "2025-12-25T14:48:23.570816+00:00", "meta": {"OBJECT_NAME": "STARLINK-36126", "OBJECT_ID": "2025-281U", "EPOCH": "2025-12-25T08:00:01.000224", "MEAN_MOTION": 15.53771225, "ECCENTRICITY": 0.00015264, "INCLINATION": 43.0002, "RA_OF_ASC_NODE": 45.9392, "ARG_OF_PERICENTER": 271.0734, "MEAN_ANOMALY": 120.1165, "EPHEMERIS_TYPE": 0, "CLASSIFICATION_TYPE": "U", "NORAD_CAT_ID": 66866, "ELEMENT_SET_NO": 999, "REV_AT_EPOCH": 344, "BSTAR": -0.034007865, "MEAN_MOTION_DOT": -0.02001572, "MEAN_MOTION_DDOT": 0}, "tle": {"line1": "1 66866U 25281U   25359.33334491 -.02001572  00000+0 -34008-1 0  9998", "line2": "2 66866  43.0002  45.9392 0001526 271.0734 120.1165 15.53771225  3448"}}, "geometry": {"type": "Point", "coordinates": [-136.57928313455542, 0.7946848950693092]}}, {"type": "Feature", "properties": {"norad_id": 66867, "name": "STARLINK-36101", "group": "last-30-days", "lat": -0.5122546271529879, "lon": -135.18135476973643, "alt_km": 409.132622058346, "timestamp": "2025-12-25T14:48:23.570825+00:00", "meta": {"OBJECT_NAME": "STARLINK-36101", "OBJECT_ID": "2025-281V", "EPOCH": "2025-12-25T08:00:01.000224", "MEAN_MOTION": 15.53770261, "ECCENTRICITY": 0.00016357, "INCLINATION": 43.0004, "RA_OF_ASC_NODE": 45.9345, "ARG_OF_PERICENTER": 268.9882, "MEAN_ANOMALY": 124.1204, "EPHEMERIS_TYPE": 0, "CLASSIFICATION_TYPE": "U", "NORAD_CAT_ID": 66867, "ELEMENT_SET_NO": 999, "REV_AT_EPOCH": 325, "BSTAR": -0.033979969, "MEAN_MOTION_DOT": -0.02000105, "MEAN_MOTION_DDOT": 0}, "tle": {"line1": "1 66867U 25281V   25359.33334491 -.02000105  00000+0 -33980-1 0  9998", "line2": "2 66867  43.0004  45.9345 0001635 268.9882 124.1204 15.53770261  3255"}}, "geometry": {"type": "Point", "coordinates": [-135.18135476973643, -0.5122546271529879]}}, {"type": "Feature", "properties": {"norad_id": 66868, "name": "STARLINK-36108", "group": "last-30-days", "lat": -1.8183068532558726, "lon": -133.7839885003672, "alt_km": 409.3369758280696, "timestamp": "2025-12-25T14:48:23.570834+00:00", "meta": {"OBJECT_NAME": "STARLINK-36108", "OBJECT_ID": "2025-281W", "EPOCH": "2025-12-25T08:00:01.000224", "MEAN_MOTION": 15.53768926, "ECCENTRICITY": 0.00016531, "INCLINATION": 43.0004, "RA_OF_ASC_NODE": 45.9293, "ARG_OF_PERICENTER": 272.3237, "MEAN_ANOMALY": 122.702, "EPHEMERIS_TYPE": 0, "CLASSIFICATION_TYPE": "U", "NORAD_CAT_ID": 66868, "ELEMENT_SET_NO": 999, "REV_AT_EPOCH": 325, "BSTAR": -0.03394949, "MEAN_MOTION_DOT": -0.01998422, "MEAN_MOTION_DDOT": 0}, "tle": {"line1": "1 66868U 25281W   25359.33334491 -.01998422  00000+0 -33949-1 0  9991", "line2": "2 66868  43.0004  45.9293 0001653 272.3237 122.7020 15.53768926  3256"}}, "geometry": {"type": "Point", "coordinates": [-133.7839885003672, -1.8183068532558726]}}]}